GPS BIIR-2  (PRN 13)    
1 24876U 97035A   25050.57482144 -.00000015  00000+0  00000+0 0  9993
2 24876  55.7570 117.4550 0086937  54.1838 306.6831  2.00562602202276
GPS BIIR-4  (PRN 20)    
1 26360U 00025A   25050.94979354 -.00000049  00000+0  00000+0 0  9998
2 26360  54.8569  38.8059 0038814 230.1743 131.2677  2.00559931181600
GPS BIIR-5  (PRN 22)    
1 26407U 00040A   25050.95636005  .00000080  00000+0  00000+0 0  9995
2 26407  54.9772 234.3245 0135081 298.4476 265.1372  2.00564049180270
GPS BIIR-8  (PRN 16)    
1 27663U 03005A   25050.25751780  .00000075  00000+0  00000+0 0  9999
2 27663  55.0133 234.1627 0143512  49.6122 150.3154  2.00560922161629
GPS BIIR-11 (PRN 19)    
1 28190U 04009A   25048.47138216 -.00000040  00000+0  00000+0 0  9997
2 28190  55.2403 295.2189 0100559 156.6773 347.8005  2.00570940153229
GPS BIIR-13 (PRN 02)    
1 28474U 04045A   25038.49730115 -.00000105  00000+0  00000+0 0  9991
2 28474  55.3691 344.7844 0167140 300.3164 247.0154  2.00563524148504
GPS BIIRM-1 (PRN 17)    
1 28874U 05038A   25050.96589808 -.00000017  00000+0  00000+0 0  9997
2 28874  55.2829 292.5878 0134208 289.2177 242.9967  2.00568674142168
GPS BIIRM-2 (PRN 31)    
1 29486U 06042A   25050.92914191  .00000020  00000+0  00000+0 0  9999
2 29486  54.6807 170.4703 0104839  45.1685   0.5712  2.00569006134727
GPS BIIRM-3 (PRN 12)    
1 29601U 06052A   25050.29377582  .00000076  00000+0  00000+0 0  9997
2 29601  55.0520 233.1576 0087954  84.6544 276.3480  2.00555764133728
GPS BIIRM-4 (PRN 15)    
1 32260U 07047A   25050.60258287 -.00000019  00000+0  00000+0 0  9990
2 32260  53.7500 100.0003 0158864  79.7893 282.0672  2.00552827127136
GPS BIIRM-5 (PRN 29)    
1 32384U 07062A   25048.85273032 -.00000035  00000+0  00000+0 0  9991
2 32384  55.4297 293.5730 0028785 153.7064 151.6499  2.00560756125799
GPS BIIRM-6 (PRN 07)    
1 32711U 08012A   25050.51344418  .00000021  00000+0  00000+0 0  9998
2 32711  54.4576 169.1906 0193874 241.4883 116.5383  2.00554794124078
GPS BIIRM-8 (PRN 05)    
1 35752U 09043A   25050.65742207 -.00000040  00000+0  00000+0 0  9996
2 35752  55.8760  46.4659 0053572  74.9071  40.4292  2.00554808113681
GPS BIIF-1  (PRN 25)    
1 36585U 10022A   25050.79084322  .00000079  00000+0  00000+0 0  9993
2 36585  54.3711 228.0041 0121729  63.5221 267.2171  2.00564082107919
GPS BIIF-3  (PRN 24)    
1 38833U 12053A   25050.69666527  .00000012  00000+0  00000+0 0  9996
2 38833  53.5282 163.3523 0163082  59.7839 301.8162  2.00561582 89766
GPS BIIF-4  (PRN 27)    
1 39166U 13023A   25050.06052456 -.00000016  00000+0  00000+0 0  9990
2 39166  54.8982 288.6071 0132182  46.4098 314.7380  2.00562042 86194
GPS BIIF-5  (PRN 30)    
1 39533U 14008A   25050.55805819  .00000019  00000+0  00000+0 0  9997
2 39533  53.6081 168.9940 0075694 222.1849 137.2212  2.00556361 80008
GPS BIIF-6  (PRN 06)    
1 39741U 14026A   25050.34401073 -.00000093  00000+0  00000+0 0  9992
2 39741  56.6764 350.2871 0036249 318.5342  41.2010  2.00550963 78852
GPS BIIF-7  (PRN 09)    
1 40105U 14045A   25050.42471561 -.00000016  00000+0  00000+0 0  9992
2 40105  55.0506 107.7272 0028610 118.6070 241.7480  2.00553180 76394
GPS BIIF-8  (PRN 03)    
1 40294U 14068A   25050.29915178 -.00000037  00000+0  00000+0 0  9991
2 40294  56.6299  49.6206 0055533  63.6585 296.9341  2.00575698 75524
GPS BIIF-9  (PRN 26)    
1 40534U 15013A   25050.43838911  .00000074  00000+0  00000+0 0  9994
2 40534  53.2690 224.1521 0097535  34.3326 326.2798  2.00550581 72147
GPS BIIF-10 (PRN 08)    
1 40730U 15033A   25050.10038678 -.00000013  00000+0  00000+0 0  9994
2 40730  54.3787 286.9568 0103945  23.2173 337.3069  2.00554363 70303
GPS BIIF-11 (PRN 10)    
1 41019U 15062A   25050.65626098 -.00000035  00000+0  00000+0 0  9990
2 41019  56.6081  49.4625 0103048 228.3065 130.8305  2.00566758 68154
GPS BIIF-12 (PRN 32)    
1 41328U 16007A   25050.74331937 -.00000016  00000+0  00000+0 0  9997
2 41328  55.2378 108.6121 0086314 240.8764 118.3222  2.00575236 66160
GPS BIII-1  (PRN 04)    
1 43873U 18109A   25050.39439042 -.00000016  00000+0  00000+0 0  9996
2 43873  55.4041 111.2554 0033113 196.3452 166.8153  2.00565198 45393
GPS BIII-2  (PRN 18)    
1 44506U 19056A   25049.26630442 -.00000097  00000+0  00000+0 0  9992
2 44506  55.8117 350.3454 0048751 194.3612 337.0233  2.00560488 40360
GPS BIII-3  (PRN 23)    
1 45854U 20041A   25050.69067902 -.00000037  00000+0  00000+0 0  9993
2 45854  56.3274  47.7264 0051043 199.6032 221.7722  2.00568709 34364
GPS BIII-4  (PRN 14)    
1 46826U 20078A   25040.47497619  .00000063  00000+0  00000+0 0  9998
2 46826  54.0992 230.7677 0053664 198.3978  18.3410  2.00559149 31622
GPS BIII-5  (PRN 11)    
1 48859U 21054A   25040.41230269 -.00000110  00000+0  00000+0 0  9995
2 48859  55.3439 352.2364 0019054 231.3889 127.7036  2.00571271 26866
GPS BIII-6  (PRN 28)    
1 55268U 23009A   25035.37859376  .00000050  00000+0  00000+0 0  9996
2 55268  55.0907 168.0644 0001455  61.5670 298.5690  2.00546882 15261
GPS BIII-7  (PRN 01)    
1 62339U 24242A   25050.40532054 -.00000094  00000+0  00000+0 0  9994
2 62339  54.9940 353.7285 0004558 312.2833 183.0493  2.00556422  1570
